STARLINK-35602          
1 66403U 25257Z   26166.13536778  .00019555  00000+0  58848-3 0  9991
2 66403  53.1603 122.9194 0001404 106.5496 253.5661 15.34394454 34677
STARLINK-35691          
1 66404U 25257AA  26166.06602855  .00019859  00000+0  59766-3 0  9991
2 66404  53.1599 123.2003 0001482 107.6431 252.4733 15.34382558 34661
STARLINK-35683          
1 66405U 25257AB  26166.15430391  .00024979  00000+0  74787-3 0  9995
2 66405  53.1591 123.0403 0001471  85.6791 274.4380 15.34404030 34604
STARLINK-34840          
1 66406U 25257AC  26166.12484994  .00016501  00000+0  49870-3 0  9998
2 66406  53.1589 122.8475 0001325 109.2129 250.9017 15.34383026 34612
STARLINK-35686          
1 66407U 25257AD  26166.18787714  .00021234  00000+0  63782-3 0  9998
2 66407  53.1582 122.5363 0001248  95.1570 264.9575 15.34398743 34689
STARLINK-35679          
1 66408U 25257AE  26166.12695100  .00026202  00000+0  78401-3 0  9994
2 66408  53.1586 122.8641 0001139  99.9068 260.2063 15.34396343 34673
STARLINK-35617          
1 66422U 25259A   26166.08071911  .00016631  00000+0  61247-3 0  9990
2 66422  43.0025  84.5472 0000842 275.2455  84.8301 15.27581812 34382
STARLINK-35618          
1 66423U 25259B   26166.07557786  .00029634  00000+0  10820-2 0  9996
2 66423  43.0073  84.5071 0000953 273.8254  86.2489 15.27583751 34382
STARLINK-35588          
1 66424U 25259C   26166.07300818  .00017055  00000+0  62770-3 0  9995
2 66424  43.0061  84.4852 0000582 282.7630  77.3157 15.27588862 34382
STARLINK-35555          
1 66425U 25259D   26165.66668981  .00036300  00000+0  13232-2 0  9990
2 66425  43.0014  86.7257 0001025 249.3580  54.8618 15.27555186  5777
STARLINK-35589          
1 66426U 25259E   26166.06658819  .00015301  00000+0  56408-3 0  9996
2 66426  43.0053  84.4355 0002056 271.1307  88.9309 15.27597180 34384
STARLINK-35611          
1 66427U 25259F   26166.06272808  .00025431  00000+0  92991-3 0  9999
2 66427  43.0032  84.4032 0001343 269.6705  90.3993 15.27600493 34384
STARLINK-35610          
1 66428U 25259G   26166.05887088  .00026106  00000+0  95354-3 0  9997
2 66428  43.0058  84.3758 0000814 255.1283 104.9479 15.27624874 34380
STARLINK-35533          
1 66429U 25259H   26166.05500894  .00020631  00000+0  75634-3 0  9991
2 66429  43.0072  84.3475 0000874 178.2825 181.8030 15.27615884 34384
STARLINK-35470          
1 66430U 25259J   26166.05117764  .00017470  00000+0  64256-3 0  9998
2 66430  43.0071  84.3173 0001483 277.6314  82.4369 15.27596106 34380
STARLINK-35439          
1 66431U 25259K   26166.04858866  .00016732  00000+0  61563-3 0  9991
2 66431  43.0037  84.2956 0000515 200.1260 159.9571 15.27609005 34385
STARLINK-35446          
1 66432U 25259L   26166.04730781  .00019530  00000+0  71671-3 0  9997
2 66432  43.0066  84.2872 0001037 264.4252  95.6481 15.27610328 34385
STARLINK-35457          
1 66433U 25259M   26166.04473522  .00017483  00000+0  64274-3 0  9991
2 66433  43.0078  84.2678 0000513 230.8626 129.2180 15.27609809 34385
STARLINK-35389          
1 66434U 25259N   26164.08185527  .00017291  00000+0  63600-3 0  9998
2 66434  42.9991  95.3288 0004241 274.6073  85.4294 15.27595627 34080
STARLINK-35502          
1 66435U 25259P   26166.03702377  .00016993  00000+0  62557-3 0  9992
2 66435  43.0153  84.2128 0005937 284.0108  76.0084 15.27571323 34383
STARLINK-35501          
1 66436U 25259Q   26166.04216749  .00020882  00000+0  76579-3 0  9998
2 66436  43.0056  84.2433 0003968 277.8311  82.2090 15.27593099 34383
STARLINK-35474          
1 66437U 25259R   26166.07686310  .00017037  00000+0  62719-3 0  9996
2 66437  43.0040  84.5083 0000896 272.2036  87.8713 15.27580955 34381
STARLINK-34681          
1 66438U 25259S   26166.07043566  .00025627  00000+0  93719-3 0  9995
2 66438  43.0052  84.4586 0001598 118.1260 241.9753 15.27593373 34272
STARLINK-35327          
1 66439U 25259T   26165.51264079  .00015390  00000+0  56680-3 0  9990
2 66439  43.0121  87.1507 0004642 279.8571  80.1757 15.27621370 34306
STARLINK-35405          
1 66440U 25259U   26166.06529736  .00017879  00000+0  65746-3 0  9994
2 66440  43.0027  84.4174 0000632 240.9858 119.0931 15.27589123 34388
STARLINK-35426          
1 66441U 25259V   26166.05758737  .00020164  00000+0  73993-3 0  9993
2 66441  42.9965  84.3542 0001575 276.3411  83.7261 15.27594578 34384
STARLINK-34724          
1 66442U 25259W   26165.51022692  .00017044  00000+0  62742-3 0  9991
2 66442  42.9939  87.9891 0001580 251.5069 108.5611 15.27581794 34293
STARLINK-35219          
1 66443U 25259X   26165.50636750  .00019907  00000+0  73074-3 0  9997
2 66443  43.0180  87.9625 0003280 274.2153  85.8324 15.27588963 34185
STARLINK-35360          
1 66444U 25259Y   26165.05879767  .00021877  00000+0  80126-3 0  9990
2 66444  43.0058  89.7582 0001462 264.4510  95.6175 15.27616766 34232
STARLINK-34698          
1 66445U 25259Z   26165.50251439  .00023260  00000+0  85175-3 0  9998
2 66445  43.0044  87.9332 0003151 268.9801  91.0689 15.27591302 34182
