OBJECT_NAME,OBJECT_ID,EPOCH,MEAN_MOTION,ECCENTRICITY,INCLINATION,RA_OF_ASC_NODE,ARG_OF_PERICENTER,MEAN_ANOMALY,EPHEMERIS_TYPE,CLASSIFICATION_TYPE,NORAD_CAT_ID,ELEMENT_SET_NO,REV_AT_EPOCH,BSTAR,MEAN_MOTION_DOT,MEAN_MOTION_DDOT
STARLINK-35602,2025-257Z,2026-06-15T03:14:55.776192,15.34394454,.0001404,53.1603,122.9194,106.5496,253.5661,0,U,66403,999,3467,.58848E-3,.19555E-3,0
STARLINK-35691,2025-257AA,2026-06-15T01:35:04.866720,15.34382558,.0001482,53.1599,123.2003,107.6431,252.4733,0,U,66404,999,3466,.59766E-3,.19859E-3,0
STARLINK-35683,2025-257AB,2026-06-15T03:42:11.857824,15.34404030,.0001471,53.1591,123.0403,85.6791,274.4380,0,U,66405,999,3460,.74787E-3,.24979E-3,0
STARLINK-34840,2025-257AC,2026-06-15T02:59:47.034816,15.34383026,.0001325,53.1589,122.8475,109.2129,250.9017,0,U,66406,999,3461,.4987E-3,.16501E-3,0
STARLINK-35686,2025-257AD,2026-06-15T04:30:32.584896,15.34398743,.0001248,53.1582,122.5363,95.1570,264.9575,0,U,66407,999,3468,.63782E-3,.21234E-3,0
STARLINK-35679,2025-257AE,2026-06-15T03:02:48.566400,15.34396343,.0001139,53.1586,122.8641,99.9068,260.2063,0,U,66408,999,3467,.78401E-3,.26202E-3,0
STARLINK-35617,2025-259A,2026-06-15T01:56:14.131104,15.27581812,.0000842,43.0025,84.5472,275.2455,84.8301,0,U,66422,999,3438,.61247E-3,.16631E-3,0
STARLINK-35618,2025-259B,2026-06-15T01:48:49.927104,15.27583751,.0000953,43.0073,84.5071,273.8254,86.2489,0,U,66423,999,3438,.1082E-2,.29634E-3,0
STARLINK-35588,2025-259C,2026-06-15T01:45:07.906752,15.27588862,.0000582,43.0061,84.4852,282.7630,77.3157,0,U,66424,999,3438,.6277E-3,.17055E-3,0
STARLINK-35555,2025-259D,2026-06-14T16:00:01.999584,15.27555186,.00010256,43.0014,86.7257,249.3580,54.8618,0,U,66425,999,577,.13231688E-2,.363E-3,0
STARLINK-35589,2025-259E,2026-06-15T01:35:53.219616,15.27597180,.0002056,43.0053,84.4355,271.1307,88.9309,0,U,66426,999,3438,.56408E-3,.15301E-3,0
STARLINK-35611,2025-259F,2026-06-15T01:30:19.706112,15.27600493,.0001343,43.0032,84.4032,269.6705,90.3993,0,U,66427,999,3438,.92991E-3,.25431E-3,0
STARLINK-35610,2025-259G,2026-06-15T01:24:46.444032,15.27624874,.0000814,43.0058,84.3758,255.1283,104.9479,0,U,66428,999,3438,.95354E-3,.26106E-3,0
STARLINK-35533,2025-259H,2026-06-15T01:19:12.772416,15.27615884,.0000874,43.0072,84.3475,178.2825,181.8030,0,U,66429,999,3438,.75634E-3,.20631E-3,0
STARLINK-35470,2025-259J,2026-06-15T01:13:41.748096,15.27596106,.0001483,43.0071,84.3173,277.6314,82.4369,0,U,66430,999,3438,.64256E-3,.1747E-3,0
STARLINK-35439,2025-259K,2026-06-15T01:09:58.060224,15.27609005,.0000515,43.0037,84.2956,200.1260,159.9571,0,U,66431,999,3438,.61563E-3,.16732E-3,0
STARLINK-35446,2025-259L,2026-06-15T01:08:07.394784,15.27610328,.0001037,43.0066,84.2872,264.4252,95.6481,0,U,66432,999,3438,.71671E-3,.1953E-3,0
STARLINK-35457,2025-259M,2026-06-15T01:04:25.123008,15.27609809,.0000513,43.0078,84.2678,230.8626,129.2180,0,U,66433,999,3438,.64274E-3,.17483E-3,0
STARLINK-35389,2025-259N,2026-06-13T01:57:52.295328,15.27595627,.00042416,42.9991,95.3288,274.6073,85.4294,0,U,66434,999,3408,.63599778E-3,.17291E-3,0
STARLINK-35502,2025-259P,2026-06-15T00:53:18.853728,15.27571323,.0005937,43.0153,84.2128,284.0108,76.0084,0,U,66435,999,3438,.62557E-3,.16993E-3,0
STARLINK-35501,2025-259Q,2026-06-15T01:00:43.271136,15.27593099,.0003968,43.0056,84.2433,277.8311,82.2090,0,U,66436,999,3438,.76579E-3,.20882E-3,0
STARLINK-35474,2025-259R,2026-06-15T01:50:40.971840,15.27580955,.0000896,43.0040,84.5083,272.2036,87.8713,0,U,66437,999,3438,.62719E-3,.17037E-3,0
STARLINK-34681,2025-259S,2026-06-15T01:41:25.641024,15.27593373,.0001598,43.0052,84.4586,118.1260,241.9753,0,U,66438,999,3427,.93719E-3,.25627E-3,0
STARLINK-35327,2025-259T,2026-06-14T12:18:12.164256,15.27621370,.00046424,43.0121,87.1507,279.8571,80.1757,0,U,66439,999,3430,.56680112E-3,.1539E-3,0
STARLINK-35405,2025-259U,2026-06-15T01:34:01.691904,15.27589123,.0000632,43.0027,84.4174,240.9858,119.0931,0,U,66440,999,3438,.65746E-3,.17879E-3,0
STARLINK-35426,2025-259V,2026-06-15T01:22:55.548768,15.27594578,.0001575,42.9965,84.3542,276.3411,83.7261,0,U,66441,999,3438,.73993E-3,.20164E-3,0
STARLINK-34724,2025-259W,2026-06-14T12:14:43.605888,15.27581794,.000158,42.9939,87.9891,251.5069,108.5611,0,U,66442,999,3429,.62742238E-3,.17044E-3,0
STARLINK-35219,2025-259X,2026-06-14T12:09:10.152000,15.27588963,.00032806,43.0180,87.9625,274.2153,85.8324,0,U,66443,999,3418,.73073619E-3,.19907E-3,0
STARLINK-35360,2025-259Y,2026-06-14T01:24:40.118688,15.27616766,.00014626,43.0058,89.7582,264.4510,95.6175,0,U,66444,999,3423,.80125879E-3,.21877E-3,0
STARLINK-34698,2025-259Z,2026-06-14T12:03:37.243296,15.27591302,.00031517,43.0044,87.9332,268.9801,91.0689,0,U,66445,999,3418,.85174953E-3,.2326E-3,0
